CUTE-1 (CO-55)          
1 27844U 03031E   26197.54116079  .00000131  00000+0  75515-4 0  9991
2 27844  98.6744 205.7314 0010852  99.2116 261.0291 14.24352049195854
CUBESAT XI-IV (CO-57)   
1 27848U 03031J   26197.96606914  .00000108  00000+0  66478-4 0  9995
2 27848  98.6775 205.8397 0010600 114.7088 245.5195 14.23635119195611
CUBESAT XI-V            
1 28895U 05043F   26197.68672259  .00000630  00000+0  10690-3 0  9991
2 28895  98.3017 353.9342 0015305 110.8516 249.4332 14.72704407106096
CUTE-1.7+APD II (CO-65) 
1 32785U 08021C   26198.14310716  .00002273  00000+0  14519-3 0  9991
2 32785  97.8298 180.1938 0006888 291.6035  68.4459 15.09711162989719
CANX-2                  
1 32790U 08021H   26197.92702164  .00001341  00000+0  96949-4 0  9997
2 32790  97.8657 178.2901 0008606 311.2562  48.7922 15.05811785989282
SEEDS II (CO-66)        
1 32791U 08021J   26197.50387267  .00010519  00000+0  32533-3 0  9990
2 32791  97.7523 196.8243 0003211 153.5241 206.6165 15.33693982991787
SWISSCUBE               
1 35932U 09051B   26197.72444137  .00000456  00000+0  99539-4 0  9997
2 35932  98.4005 106.1245 0007905 114.9711 245.2311 14.62532363893478
BEESAT-1                
1 35933U 09051C   26197.68087812  .00000383  00000+0  86615-4 0  9996
2 35933  98.3932 105.6536 0006186 125.9975 234.1800 14.61763234893492
ITUPSAT1                
1 35935U 09051E   26198.17721014  .00000337  00000+0  79459-4 0  9999
2 35935  98.4015 105.3171 0008205 137.6090 222.5745 14.60480346893118
TISAT 1                 
1 36799U 10035E   26197.83054279  .00011550  00000+0  36749-3 0  9999
2 36799  98.0717 147.0371 0004608 116.8908 243.2804 15.32770774872241
STRAND-1                
1 39090U 13009E   26197.43623744  .00000110  00000+0  51462-4 0  9995
2 39090  98.3935  16.9527 0009469 137.7246 222.4672 14.37179260701269
BRITE-AUSTRIA           
1 39091U 13009F   26197.94936880  .00000067  00000+0  37191-4 0  9994
2 39091  98.4010  16.6507 0010858 145.7302 214.4587 14.36552927701323
NEE-01 PEGASO           
1 39151U 13018B   26197.87405716  .00001354  00000+0  13328-3 0  9997
2 39151  98.1259 343.0137 0013663  69.4848 290.7835 14.93793467715138
POPACS 2                
1 39269U 13055E   26197.76037828  .00014928 -92122-6  24345-3 0  9997
2 39269  80.9912 110.3288 0414807  98.8611 265.9796 14.92059367667627
POPACS 3                
1 39270U 13055F   26196.42360878  .00008298  00000+0  19704-3 0  9997
2 39270  80.9990 198.5566 0548749 343.9708  14.4695 14.56665007642662
ZACUBE-1 (TSHEPISOSAT)  
1 39417U 13066B   26197.93417494  .00001271  00000+0  10162-3 0  9999
2 39417  97.8006 160.4171 0044090 149.6523 210.7268 15.01333422685192
WNISAT-1                
1 39423U 13066H   26197.65127389  .00000571  00000+0  11161-3 0  9998
2 39423  97.7237 344.7215 0163959 138.7515 222.6209 14.58121814671021
TRITON-1                
1 39427U 13066M   26198.21117733  .00001007  00000+0  12548-3 0  9992
2 39427  97.8226 107.3325 0090701 135.5895 225.2638 14.81800261678533
GOMX-1                  
1 39430U 13066Q   26198.00961590  .00000624  00000+0  10069-3 0  9991
2 39430  97.6462  36.5902 0128086 342.3661  17.3119 14.69545196674290
CUBEBUG-2 (LO-74)       
1 39440U 13066AA  26197.80263671  .00002156  00000+0  20214-3 0  9999
2 39440  97.8917 146.9130 0055539 289.9004  69.6236 14.93973680681418
NEE-02 KRYSAOR          
1 39441U 13066AB  26197.82319191  .00001100  00000+0  12543-3 0  9995
2 39441  97.8897 136.8299 0065270 333.9056  25.8874 14.86743048680607
FUNCUBE-1 (AO-73)       
1 39444U 13066AE  26197.88324087  .00004077  00000+0  25213-3 0  9998
2 39444  97.8292 169.9592 0037941 102.2043 258.3439 15.09830753684148
UWE-3                   
1 39446U 13066AG  26197.82397772  .00002047  00000+0  17840-3 0  9997
2 39446  97.8716 154.1042 0047571 218.9248 140.8545 14.97205791682010
BRITE-CA1 (TORONTO)     
1 40020U 14033L   26197.79719197  .00000514  00000+0  84822-4 0  9999
2 40020  97.9774 326.1854 0078560 181.1277 178.9766 14.72724378646570
DUCHIFAT-1              
1 40021U 14033M   26197.69874411  .00099153  00000+0  77546-3 0  9991
2 40021  98.0414 261.1627 0002787 236.8489 123.2505 15.71313651660377
NANOSATC-BR1            
1 40024U 14033Q   26198.05591392  .00010197  00000+0  32893-3 0  9996
2 40024  98.0704 233.1102 0005253  91.9307 268.2534 15.32365382658553
QB50P1                  
1 40025U 14033R   26197.60588384  .00004288  00000+0  21031-3 0  9990
2 40025  98.0963 210.8240 0010431 120.5690 239.6573 15.18678566657496
QB50P2                  
1 40032U 14033Y   26197.94688389  .00004187  00000+0  22476-3 0  9993
2 40032  98.0763 196.6896 0009271  79.0258 281.2015 15.15520360657172
PERSEUS-M2              
1 40037U 14033AD  26198.17086902  .00000495  00000+0  50047-4 0  9991
2 40037  97.9987 149.3266 0010979 192.4551 167.6399 14.95593380655261
PERSEUS-M1              
1 40039U 14033AF  26197.80692309  .00000949  00000+0  90612-4 0  9992
2 40039  97.9654 142.4284 0011012 190.7598 169.3388 14.95719308655064
